NORAD_CAT_ID,OBJECT_NAME,OBJECT_TYPE,EPOCH,MEAN_MOTION,ECCENTRICITY,INCLINATION,RA_OF_ASC_NODE,ARG_OF_PERICENTER,MEAN_ANOMALY,BSTAR,MEAN_MOTION_DOT,MEAN_MOTION_DDOT,TLE_LINE0,TLE_LINE1,TLE_LINE2,SEMIMAJOR_AXIS,PERIOD,APOGEE,PERIGEE,DECAYED
51966.0,STARLINK-3699,PAYLOAD,2022-10-14 12:06:30,15.08812068,0.0001858,53.2192,205.507,53.3792,306.7371,-2.6629e-05,-7.12e-06,0.0,0 STARLINK-3699,1 51966U 22025L   22287.50452522 -.00000712  00000-0 -26629-4 0  9995,2 51966  53.2192 205.5070 0001858  53.3792 306.7371 15.08812068 34767,6917.965999999999,95.439,541.116,538.545,0.0
51966.0,STARLINK-3699,PAYLOAD,2022-10-15 00:49:33,15.08852094,0.000133,53.2173,203.1236,63.9573,296.1556,2.8669e-05,1.69e-06,0.0,0 STARLINK-3699,1 51966U 22025L   22288.03441502  .00000169  00000-0  28669-4 0  9990,2 51966  53.2173 203.1236 0001330  63.9573 296.1556 15.08852094 33751,6917.843000000003,95.437,540.628,538.788,0.0
51966.0,STARLINK-3699,PAYLOAD,2022-10-16 10:12:40,15.08811008,0.0002041999999999,53.2198,196.8836,50.4223,309.6949,-8.127899999999999e-06,-4.17e-06,0.0,0 STARLINK-3699,1 51966U 22025L   22289.42547428 -.00000417  00000-0 -81279-5 0  9993,2 51966  53.2198 196.8836 0002042  50.4223 309.6949 15.08811008 35057,6917.969,95.439,541.247,538.4209999999998,0.0
51966.0,STARLINK-3699,PAYLOAD,2022-10-16 18:09:36,15.08823657,0.0001759,53.2191,195.3967,60.1071,300.0095,-0.00018933,-3.299e-05,0.0,0 STARLINK-3699,1 51966U 22025L   22289.75667598 -.00003299  00000-0 -18933-3 0  9996,2 51966  53.2191 195.3967 0001759  60.1071 300.0095 15.08823657 35108,6917.93,95.439,541.012,538.578,0.0
51966.0,STARLINK-3699,PAYLOAD,2022-10-17 03:41:55,15.08829928,0.0001764,53.2192,193.6121,58.6577,301.4588,-0.00024252,-4.145e-05,0.0,0 STARLINK-3699,1 51966U 22025L   22290.15411685 -.00004145  00000-0 -24252-3 0  9998,2 51966  53.2192 193.6121 0001764  58.6577 301.4588 15.08829928 34075,6917.911,95.438,540.996,538.556,0.0
51966.0,STARLINK-3699,PAYLOAD,2022-10-17 18:00:23,15.08838338,0.0001821999999999,53.2196,190.938,48.7964,311.3185,-6.8865e-05,-1.384e-05,0.0,0 STARLINK-3699,1 51966U 22025L   22290.75026702 -.00001384  00000-0 -68865-4 0  9997,2 51966  53.2196 190.9380 0001822  48.7964 311.3185 15.08838338 34169,6917.885,95.438,541.011,538.49,0.0
51966.0,STARLINK-3699,PAYLOAD,2022-10-18 03:32:40,15.08850118,0.0001766999999999,53.2189,189.1524,64.2888,295.8286,2.1649e-05,5.7e-07,0.0,0 STARLINK-3699,1 51966U 22025L   22291.14769545  .00000057  00000-0  21649-4 0  9993,2 51966  53.2189 189.1524 0001767  64.2888 295.8286 15.08850118 35313,6917.849,95.437,540.937,538.492,0.0
51966.0,STARLINK-3699,PAYLOAD,2022-10-18 09:54:14,15.08839497,0.0001769,53.2192,187.9647,57.3784,302.7379,4.8664e-05,4.86e-06,0.0,0 STARLINK-3699,1 51966U 22025L   22291.41266233  .00000486  00000-0  48664-4 0  9991,2 51966  53.2192 187.9647 0001769  57.3784 302.7379 15.08839497 35351,6917.882,95.438,540.971,538.523,0.0
51966.0,STARLINK-3699,PAYLOAD,2022-10-18 16:15:47,15.08830167,0.0001565999999999,53.2192,186.7756,64.0637,296.0516,7.9071e-05,9.7e-06,0.0,0 STARLINK-3699,1 51966U 22025L   22291.67762834  .00000970  00000-0  79071-4 0  9991,2 51966  53.2192 186.7756 0001566  64.0637 296.0516 15.08830167 35393,6917.91,95.438,540.859,538.692,0.0
51966.0,STARLINK-3699,PAYLOAD,2022-10-19 01:48:06,15.08820179,0.0001698,53.219,184.9892,60.6444,299.4717,0.00012975,1.776e-05,0.0,0 STARLINK-3699,1 51966U 22025L   22292.07507745  .00001776  00000-0  12975-3 0  9998,2 51966  53.2190 184.9892 0001698  60.6444 299.4717 15.08820179 35455,6917.941,95.439,540.981,538.631,0.0
51966.0,STARLINK-3699,PAYLOAD,2022-10-19 09:45:01,15.08833882,0.0001813,53.2191,183.503,58.2318,301.885,0.00016003,2.259e-05,0.0,0 STARLINK-3699,1 51966U 22025L   22292.40627028  .00002259  00000-0  16003-3 0  9995,2 51966  53.2191 183.5030 0001813  58.2318 301.8850 15.08833882 34413,6917.899,95.438,541.018,538.51,0.0
51966.0,STARLINK-3699,PAYLOAD,2022-10-19 20:52:44,15.08838565,0.0001723,53.2197,181.4236,64.64699999999999,295.4701,-2.3695e-05,-6.65e-06,0.0,0 STARLINK-3699,1 51966U 22025L   22292.86995416 -.00000665  00000-0 -23695-4 0  9991,2 51966  53.2197 181.4236 0001723  64.6470 295.4701 15.08838565 34487,6917.885,95.438,540.942,538.558,0.0
51966.0,STARLINK-3699,PAYLOAD,2022-10-20 09:35:48,15.08850079,0.0001861,53.2194,179.0437,59.4916,300.6259,9.2286e-06,-1.41e-06,0.0,0 STARLINK-3699,1 51966U 22025L   22293.39986497 -.00000141  00000-0  92286-5 0  9990,2 51966  53.2194 179.0437 0001861  59.4916 300.6259 15.08850079 35651,6917.85,95.437,541.002,538.427,0.0
51966.0,STARLINK-3699,PAYLOAD,2022-10-20 15:57:21,15.08842006,0.0001685,53.2194,177.8554,63.7638,296.3527,6.8686e-05,8.05e-06,0.0,0 STARLINK-3699,1 51966U 22025L   22293.66482690  .00000805  00000-0  68686-4 0  9998,2 51966  53.2194 177.8554 0001685  63.7638 296.3527 15.08842006 34604,6917.874,95.437,540.905,538.5740000000002,0.0
51966.0,STARLINK-3699,PAYLOAD,2022-10-21 01:29:40,15.08838939,0.0001583,53.2186,176.0691,60.9539,299.1611,5.4568e-05,5.81e-06,0.0,0 STARLINK-3699,1 51966U 22025L   22294.06226962  .00000581  00000-0  54568-4 0  9996,2 51966  53.2186 176.0691 0001583  60.9539 299.1611 15.08838939 35756,6917.884,95.438,540.844,538.654,0.0
51966.0,STARLINK-3699,PAYLOAD,2022-10-21 09:26:35,15.0884937,0.0001704,53.2185,174.5825,56.3889,303.7266,7.167399999999999e-05,8.53e-06,0.0,0 STARLINK-3699,1 51966U 22025L   22294.39346153  .00000853  00000-0  71674-4 0  9996,2 51966  53.2185 174.5825 0001704  56.3889 303.7266 15.08849370 35804,6917.852,95.437,540.896,538.538,0.0
51966.0,STARLINK-3699,PAYLOAD,2022-10-21 15:48:07,15.08842973,0.0001727,53.2184,173.3932,59.8404,300.2759,7.2131e-05,8.599999999999999e-06,0.0,0 STARLINK-3699,1 51966U 22025L   22294.65842428  .00000860  00000-0  72131-4 0  9998,2 51966  53.2184 173.3932 0001727  59.8404 300.2759 15.08842973 34759,6917.871,95.437,540.931,538.5419999999998,0.0
51966.0,STARLINK-3699,PAYLOAD,2022-10-21 23:45:03,15.08839986,0.0001675,53.2183,171.9062,57.2228,302.8926,1.547e-05,-4.2e-07,0.0,0 STARLINK-3699,1 51966U 22025L   22294.98962746 -.00000042  00000-0  15470-4 0  9996,2 51966  53.2183 171.9062 0001675  57.2228 302.8926 15.08839986 34804,6917.88,95.438,540.904,538.587,0.0
51966.0,STARLINK-3699,PAYLOAD,2022-10-22 22:00:27,15.0884457,0.0001652,53.2182,167.7427,60.9302,299.1856,6.0614e-05,6.77e-06,0.0,0 STARLINK-3699,1 51966U 22025L   22295.91697994  .00000677  00000-0  60614-4 0  9993,2 51966  53.2182 167.7427 0001652  60.9302 299.1856 15.08844570 34940,6917.866,95.437,540.874,538.589,0.0
51966.0,STARLINK-3699,PAYLOAD,2022-10-23 01:11:13,15.08847531,0.0001644,53.2183,167.1476,61.3648,298.751,3.621e-05,2.88e-06,0.0,0 STARLINK-3699,1 51966U 22025L   22296.04945827  .00000288  00000-0  36210-4 0  9992,2 51966  53.2183 167.1476 0001644  61.3648 298.7510 15.08847531 36054,6917.857,95.437,540.86,538.585,0.0
51966.0,STARLINK-3699,PAYLOAD,2022-10-23 09:08:07,15.08859363,0.0001693,53.2181,165.6615,60.5548,299.5613,8.9431e-05,1.136e-05,0.0,0 STARLINK-3699,1 51966U 22025L   22296.38064613  .00001136  00000-0  89431-4 0  9990,2 51966  53.2181 165.6615 0001693  60.5548 299.5613 15.08859363 35018,6917.821,95.436,540.857,538.515,0.0
51966.0,STARLINK-3699,PAYLOAD,2022-10-23 21:51:13,15.08847948,0.0001706999999999,53.2191,163.2837,58.944,301.172,6.8759e-05,8.07e-06,0.0,0 STARLINK-3699,1 51966U 22025L   22296.91056947  .00000807  00000-0  68759-4 0  9994,2 51966  53.2191 163.2837 0001707  58.9440 301.1720 15.08847948 36181,6917.856,95.437,540.9019999999998,538.54,0.0
51966.0,STARLINK-3699,PAYLOAD,2022-10-24 01:01:59,15.08848681,0.000178,53.2185,162.6882,60.8032,299.3138,7.0993e-05,8.42e-06,0.0,0 STARLINK-3699,1 51966U 22025L   22297.04304842  .00000842  00000-0  70993-4 0  9991,2 51966  53.2185 162.6882 0001780  60.8032 299.3138 15.08848681 35115,6917.854,95.437,540.95,538.487,0.0
51966.0,STARLINK-3699,PAYLOAD,2022-10-24 13:45:05,15.08835357,0.0001693,53.2175,160.3089,67.4741,292.643,-7.6067e-05,-1.498e-05,0.0,0 STARLINK-3699,1 51966U 22025L   22297.57298161 -.00001498  00000-0 -76067-4 0  9993,2 51966  53.2175 160.3089 0001693  67.4741 292.6430 15.08835357 35196,6917.895,95.438,540.931,538.5880000000002,0.0
51966.0,STARLINK-3699,PAYLOAD,2022-10-24 21:42:03,15.08810255,0.000175,53.2179,158.8228,57.9635,302.1527,-0.0002591,-4.406e-05,0.0,0 STARLINK-3699,1 51966U 22025L   22297.90420690 -.00004406  00000-0 -25910-3 0  9996,2 51966  53.2179 158.8228 0001750  57.9635 302.1527 15.08810255 36338,6917.971,95.439,541.047,538.626,0.0
51966.0,STARLINK-3699,PAYLOAD,2022-10-25 07:14:21,15.08829107,0.000155,53.2192,157.0392,53.8145,306.2990000000001,-0.00016112,-2.851e-05,0.0,0 STARLINK-3699,1 51966U 22025L   22298.30163565 -.00002851  00000-0 -16112-3 0  9992,2 51966  53.2192 157.0392 0001550  53.8145 306.2990 15.08829107 35306,6917.9140000000025,95.438,540.851,538.706,0.0
51966.0,STARLINK-3699,PAYLOAD,2022-10-25 19:57:26,15.088281,0.0001665999999999,53.2184,154.6602,54.6218,305.4929,-5.6933e-05,-1.194e-05,0.0,0 STARLINK-3699,1 51966U 22025L   22298.83155701 -.00001194  00000-0 -56933-4 0  9998,2 51966  53.2184 154.6602 0001666  54.6218 305.4929 15.08828100 35385,6917.917,95.438,540.934,538.629,0.0
51966.0,STARLINK-3699,PAYLOAD,2022-10-26 07:05:08,15.08833775,0.0001710999999999,53.2188,152.579,59.1228,300.9933,-5.177800000000001e-05,-1.112e-05,0.0,0 STARLINK-3699,1 51966U 22025L   22299.29523653 -.00001112  00000-0 -51778-4 0  9996,2 51966  53.2188 152.5790 0001711  59.1228 300.9933 15.08833775 36544,6917.899,95.438,540.948,538.581,0.0
51966.0,STARLINK-3699,PAYLOAD,2022-10-26 18:12:50,15.08818724,0.0001784,53.2186,150.4972,56.8601,303.2562,0.00025439,3.761e-05,0.0,0 STARLINK-3699,1 51966U 22025L   22299.75892060  .00003761  00000-0  25439-3 0  9992,2 51966  53.2186 150.4972 0001784  56.8601 303.2562 15.08818724 35528,6917.945,95.439,541.045,538.576,0.0
